{"type":"FeatureCollection", "features": [
{"type":"Feature","geometry":{"type":"Point","coordinates":[36.8163654,-1.2942548]},"properties":{"building":"construction","amenity":null,"name":"High Point Hotel"}},
{"type":"Feature","geometry":{"type":"Point","coordinates":[36.7920136,-1.2644397]},"properties":{"building":"office","amenity":null,"name":"MS ActionAid Kenya"}},
{"type":"Feature","geometry":{"type":"Point","coordinates":[36.8130538,-1.2334345]},"properties":{"building":"yes","amenity":null,"name":"Old Petrol Station"}},
{"type":"Feature","geometry":{"type":"Point","coordinates":[36.8157054,-1.2362965]},"properties":{"building":"yes","amenity":null,"name":"Log Houses"}},
{"type":"Feature","geometry":{"type":"Point","coordinates":[36.7739666,-1.3100491]},"properties":{"building":"public","amenity":null,"name":"nyakoboke house"}},
{"type":"Feature","geometry":{"type":"Point","coordinates":[36.7787721,-1.3142991]},"properties":{"building":"public","amenity":null,"name":"Carolina for Kibera"}},
{"type":"Feature","geometry":{"type":"Point","coordinates":[36.7878934,-1.3060453]},"properties":{"building":"public","amenity":null,"name":"Dcs Office"}},
{"type":"Feature","geometry":{"type":"Point","coordinates":[36.7869629,-1.3096176]},"properties":{"building":"public","amenity":null,"name":"Makongteni Residentials"}},
{"type":"Feature","geometry":{"type":"Point","coordinates":[36.779867,-1.3122566]},"properties":{"building":"public","amenity":null,"name":"Kibera Community Development Agenda(kcoda)"}},
{"type":"Feature","geometry":{"type":"Point","coordinates":[36.7878673,-1.3112246]},"properties":{"building":"public","amenity":null,"name":"Darajani Youth Reform"}},
{"type":"Feature","geometry":{"type":"Point","coordinates":[36.7875726,-1.3109875]},"properties":{"building":"public","amenity":null,"name":"Ass Chief's Office"}},
{"type":"Feature","geometry":{"type":"Point","coordinates":[36.7856848,-1.3098503]},"properties":{"building":"public","amenity":null,"name":"Pamoja centre"}},
{"type":"Feature","geometry":{"type":"Point","coordinates":[36.7898631,-1.3080451]},"properties":{"building":"public","amenity":null,"name":"Familly Support Centre"}},
{"type":"Feature","geometry":{"type":"Point","coordinates":[36.7902809,-1.3115324]},"properties":{"building":"church","amenity":"place_of_worship","name":null}},
{"type":"Feature","geometry":{"type":"Point","coordinates":[36.7799739,-1.3145037]},"properties":{"building":"public","amenity":null,"name":"Lea toto"}},
{"type":"Feature","geometry":{"type":"Point","coordinates":[36.7795356,-1.3140222]},"properties":{"building":"public","amenity":null,"name":"CDC"}},
{"type":"Feature","geometry":{"type":"Point","coordinates":[36.7802417,-1.3135804]},"properties":{"building":"yes","amenity":"public_building","name":"Silver Women Community"}},
{"type":"Feature","geometry":{"type":"Point","coordinates":[36.7947796,-1.3107977]},"properties":{"building":"public","amenity":null,"name":"Compassion Child Development Center"}},
{"type":"Feature","geometry":{"type":"Point","coordinates":[36.777499,-1.315541]},"properties":{"building":"public","amenity":null,"name":"Carolina for Kibera satellite office"}},
{"type":"Feature","geometry":{"type":"Point","coordinates":[36.7890267,-1.3111881]},"properties":{"building":"public","amenity":null,"name":"CBO"}},
{"type":"Feature","geometry":{"type":"Point","coordinates":[36.790372,-1.3089588]},"properties":{"building":"public","amenity":null,"name":"Victory Textile Center"}},
{"type":"Feature","geometry":{"type":"Point","coordinates":[36.7895837,-1.3080325]},"properties":{"building":"public","amenity":null,"name":"Kicoshep Youth Center"}},
{"type":"Feature","geometry":{"type":"Point","coordinates":[36.7880958,-1.3068885]},"properties":{"building":"public","amenity":null,"name":"Dudu Baya Seif-help group"}},
{"type":"Feature","geometry":{"type":"Point","coordinates":[36.7938887,-1.3119607]},"properties":{"building":"public","amenity":null,"name":"Posho Mill"}},
{"type":"Feature","geometry":{"type":"Point","coordinates":[36.7933769,-1.3116251]},"properties":{"building":"public","amenity":null,"name":"Posho Mill"}},
{"type":"Feature","geometry":{"type":"Point","coordinates":[36.7722261,-1.3089978]},"properties":{"building":"residential","amenity":null,"name":"permanent building"}},
{"type":"Feature","geometry":{"type":"Point","coordinates":[36.7814669,-1.3146913]},"properties":{"building":"yes","amenity":null,"name":null}},
{"type":"Feature","geometry":{"type":"Point","coordinates":[36.7843615,-1.3146823]},"properties":{"building":"public","amenity":null,"name":"ODM office- Mama Okinda Unit"}},
{"type":"Feature","geometry":{"type":"Point","coordinates":[36.7820195,-1.3108445]},"properties":{"building":"mosque","amenity":"place_of_worship","name":"Masjid Jamia Salama Mosque"}},
{"type":"Feature","geometry":{"type":"Point","coordinates":[36.7804271,-1.3101202]},"properties":{"building":"mosque","amenity":"place_of_worship","name":"Alaqsa Mosque"}},
{"type":"Feature","geometry":{"type":"Point","coordinates":[36.787535,-1.3102609]},"properties":{"building":"public","amenity":null,"name":"nyumba kubwa"}},
{"type":"Feature","geometry":{"type":"Point","coordinates":[36.7868649,-1.3096381]},"properties":{"building":"public","amenity":null,"name":"Subira cinema/shoe maker"}},
{"type":"Feature","geometry":{"type":"Point","coordinates":[36.7878306,-1.3080477]},"properties":{"building":"public","amenity":null,"name":"Wengo Youth Center"}},
{"type":"Feature","geometry":{"type":"Point","coordinates":[36.7741168,-1.3102118]},"properties":{"building":"public","amenity":null,"name":"villa house ayany"}},
{"type":"Feature","geometry":{"type":"Point","coordinates":[36.7938395,-1.3165096]},"properties":{"building":"public","amenity":null,"name":"Kwa mama kijiji"}},
{"type":"Feature","geometry":{"type":"Point","coordinates":[36.7785538,-1.3137747]},"properties":{"building":"public","amenity":null,"name":"Resouce Center for Slum"}},
{"type":"Feature","geometry":{"type":"Point","coordinates":[36.7767185,-1.3112938]},"properties":{"building":"public","amenity":null,"name":"kibera youth self help group"}},
{"type":"Feature","geometry":{"type":"Point","coordinates":[36.7876252,-1.3113597]},"properties":{"building":"public","amenity":null,"name":"KANU Office"}},
{"type":"Feature","geometry":{"type":"Point","coordinates":[36.7913781,-1.3128023]},"properties":{"building":"church","amenity":"place_of_worship","name":null}},
{"type":"Feature","geometry":{"type":"Point","coordinates":[36.7958747,-1.311071]},"properties":{"building":"public","amenity":null,"name":"Asst. Chief's Office"}},
{"type":"Feature","geometry":{"type":"Point","coordinates":[36.7815155,-1.292286]},"properties":{"building":"yes","amenity":null,"name":"Black Rose Apartments"}},
{"type":"Feature","geometry":{"type":"Point","coordinates":[36.775202,-1.3125609]},"properties":{"building":"public","amenity":null,"name":"Turning Point"}},
{"type":"Feature","geometry":{"type":"Point","coordinates":[36.7740497,-1.3087289]},"properties":{"building":"public","amenity":null,"name":"The Door Youth Friendly Services"}},
{"type":"Feature","geometry":{"type":"Point","coordinates":[36.7817648,-1.3102797]},"properties":{"building":"public","amenity":null,"name":"Mchanganyiko Women Group"}},
{"type":"Feature","geometry":{"type":"Point","coordinates":[36.7868893,-1.3116489]},"properties":{"building":"public","amenity":null,"name":null}},
{"type":"Feature","geometry":{"type":"Point","coordinates":[36.7974719,-1.3112343]},"properties":{"building":"public","amenity":null,"name":"Chief camp"}},
{"type":"Feature","geometry":{"type":"Point","coordinates":[36.7818796,-1.316216]},"properties":{"building":"yes","amenity":"school","name":"Seed School Kibera"}},
{"type":"Feature","geometry":{"type":"Point","coordinates":[36.8834185,-1.3142444]},"properties":{"building":"office","amenity":"public_building","name":"Shadrack Wayondi - Milimani Zone Leader'S Office"}},
{"type":"Feature","geometry":{"type":"Point","coordinates":[36.8895523,-1.3257442]},"properties":{"building":"public","amenity":null,"name":"Focus Africa"}},
{"type":"Feature","geometry":{"type":"Point","coordinates":[36.8881355,-1.3259454]},"properties":{"building":"public","amenity":null,"name":"City Council Imara Daima Office"}},
{"type":"Feature","geometry":{"type":"Point","coordinates":[36.8226133,-1.3001204]},"properties":{"building":"yes","amenity":null,"name":"Josem Trust House"}},
{"type":"Feature","geometry":{"type":"Point","coordinates":[36.7783012,-1.3118343]},"properties":{"building":"public","amenity":null,"name":"African Health and Community Programe (AHCP)"}},
{"type":"Feature","geometry":{"type":"Point","coordinates":[36.7786316,-1.3120781]},"properties":{"building":"public","amenity":null,"name":"Young Gifted and Black"}},
{"type":"Feature","geometry":{"type":"Point","coordinates":[36.8722681,-1.2509425]},"properties":{"building":"public","amenity":null,"name":"Top life Cyber cafe"}},
{"type":"Feature","geometry":{"type":"Point","coordinates":[36.8741004,-1.2594257]},"properties":{"building":"public","amenity":null,"name":"NARC Kenya Office"}},
{"type":"Feature","geometry":{"type":"Point","coordinates":[36.8736869,-1.2595289]},"properties":{"building":"public","amenity":null,"name":"Huruma City Council"}},
{"type":"Feature","geometry":{"type":"Point","coordinates":[36.8738096,-1.2562253]},"properties":{"building":"public","amenity":null,"name":"Beckam Studio Huruma"}},
{"type":"Feature","geometry":{"type":"Point","coordinates":[36.8767353,-1.2564892]},"properties":{"building":"public","amenity":null,"name":"Ongoza Njia Community Development Center"}},
{"type":"Feature","geometry":{"type":"Point","coordinates":[36.8748431,-1.2572688]},"properties":{"building":"public","amenity":null,"name":"Ilama Diesel and Kerosene Centre"}},
{"type":"Feature","geometry":{"type":"Point","coordinates":[36.8706558,-1.2528476]},"properties":{"building":"public","amenity":null,"name":"Act Fashion Complex And Botique"}},
{"type":"Feature","geometry":{"type":"Point","coordinates":[36.8786233,-1.2547373]},"properties":{"building":"public","amenity":null,"name":"Outering Road Jua Kali Association Demonstration Centre"}},
{"type":"Feature","geometry":{"type":"Point","coordinates":[36.874575,-1.2552055]},"properties":{"building":"public","amenity":null,"name":"Missionery of Charity Mother Teresa"}},
{"type":"Feature","geometry":{"type":"Point","coordinates":[36.7572506,-1.3497756]},"properties":{"building":"yes","amenity":null,"name":"CUEA Clinic Infirmary"}},
{"type":"Feature","geometry":{"type":"Point","coordinates":[36.75717,-1.3500926]},"properties":{"building":"yes","amenity":null,"name":"CUEA Bishop McCauley Library"}},
{"type":"Feature","geometry":{"type":"Point","coordinates":[36.7582938,-1.3521732]},"properties":{"building":"yes","amenity":null,"name":null}},
{"type":"Feature","geometry":{"type":"Point","coordinates":[36.7762928,-1.3142693]},"properties":{"building":"yes","amenity":null,"name":null}},
{"type":"Feature","geometry":{"type":"Point","coordinates":[36.7969392,-1.2894308]},"properties":{"building":"public","amenity":null,"name":"legal resource foundation office"}},
{"type":"Feature","geometry":{"type":"Point","coordinates":[36.8045872,-1.2897346]},"properties":{"building":"yes","amenity":null,"name":null}},
{"type":"Feature","geometry":{"type":"Point","coordinates":[36.7986623,-1.2929231]},"properties":{"building":"Jabavu Court","amenity":null,"name":null}},
{"type":"Feature","geometry":{"type":"Point","coordinates":[36.7960835,-1.2903632]},"properties":{"building":"mtito Andei Apartments","amenity":null,"name":null}},
{"type":"Feature","geometry":{"type":"Point","coordinates":[36.7150741,-1.3176067]},"properties":{"building":"yes","amenity":null,"name":"African Wildlife Foundation Headquarters"}},
{"type":"Feature","geometry":{"type":"Point","coordinates":[36.8810199,-1.3140679]},"properties":{"building":"yes","amenity":"ujamaa family centre","name":null}},
{"type":"Feature","geometry":{"type":"Point","coordinates":[36.8854426,-1.3198752]},"properties":{"building":"yes","amenity":null,"name":null}},
{"type":"Feature","geometry":{"type":"Point","coordinates":[36.884638,-1.3233139]},"properties":{"building":"yes","amenity":"cyber_cafe","name":null}},
{"type":"Feature","geometry":{"type":"Point","coordinates":[36.8862733,-1.3170865]},"properties":{"building":"church","amenity":"place_of_worship","name":null}},
{"type":"Feature","geometry":{"type":"Point","coordinates":[36.8879671,-1.3197853]},"properties":{"building":"yes","amenity":"public_building","name":"Posho mill"}},
{"type":"Feature","geometry":{"type":"Point","coordinates":[36.8918073,-1.3276892]},"properties":{"building":"yes","amenity":"internet_cafe","name":"4g Cyber Cafe"}},
{"type":"Feature","geometry":{"type":"Point","coordinates":[36.8189488,-1.2801664]},"properties":{"building":"commercial","amenity":"college","name":"Zetech College"}},
{"type":"Feature","geometry":{"type":"Point","coordinates":[36.8134157,-1.279925]},"properties":{"building":"chapel","amenity":"place_of_worship","name":"YMCA Chapel"}},
{"type":"Feature","geometry":{"type":"Point","coordinates":[36.8127647,-1.2804042]},"properties":{"building":"yes","amenity":null,"name":"uon pitch"}},
{"type":"Feature","geometry":{"type":"Point","coordinates":[36.8135399,-1.2795406]},"properties":{"building":"yes","amenity":null,"name":null}},
{"type":"Feature","geometry":{"type":"Point","coordinates":[36.8618773,-1.3094829]},"properties":{"building":"Mareba Enterprice limited","amenity":null,"name":null}},
{"type":"Feature","geometry":{"type":"Point","coordinates":[36.8624364,-1.3097156]},"properties":{"building":"Sana industries company limited","amenity":null,"name":null}},
{"type":"Feature","geometry":{"type":"Point","coordinates":[36.8621598,-1.3097346]},"properties":{"building":"yes","amenity":null,"name":null}},
{"type":"Feature","geometry":{"type":"Point","coordinates":[36.8751391,-1.3139225]},"properties":{"building":"Jomba investment","amenity":null,"name":null}},
{"type":"Feature","geometry":{"type":"Point","coordinates":[36.8742407,-1.3146228]},"properties":{"building":"Vanila base","amenity":null,"name":null}},
{"type":"Feature","geometry":{"type":"Point","coordinates":[36.8751545,-1.3157122]},"properties":{"building":"Nyamweyas Depot","amenity":null,"name":null}},
{"type":"Feature","geometry":{"type":"Point","coordinates":[36.8745224,-1.3168429]},"properties":{"building":"WIMA engineering workshop","amenity":null,"name":null}},
{"type":"Feature","geometry":{"type":"Point","coordinates":[36.8734701,-1.3173201]},"properties":{"building":"yes","amenity":null,"name":null}},
{"type":"Feature","geometry":{"type":"Point","coordinates":[36.8729647,-1.3181066]},"properties":{"building":"yes","amenity":null,"name":null}},
{"type":"Feature","geometry":{"type":"Point","coordinates":[36.8761328,-1.3183396]},"properties":{"building":"Pelson company limited","amenity":null,"name":null}},
{"type":"Feature","geometry":{"type":"Point","coordinates":[36.8756796,-1.3190301]},"properties":{"building":"Makro comm ltd","amenity":null,"name":null}},
{"type":"Feature","geometry":{"type":"Point","coordinates":[36.8749755,-1.3199007]},"properties":{"building":"Jemsha comm limited","amenity":null,"name":null}},
{"type":"Feature","geometry":{"type":"Point","coordinates":[36.8754961,-1.316545]},"properties":{"building":"yes","amenity":null,"name":"Mid street services"}},
{"type":"Feature","geometry":{"type":"Point","coordinates":[36.876137,-1.316422]},"properties":{"building":"Motorways village","amenity":null,"name":null}},
{"type":"Feature","geometry":{"type":"Point","coordinates":[36.8742897,-1.3194198]},"properties":{"building":"Jemsha comm limited","amenity":null,"name":null}},
{"type":"Feature","geometry":{"type":"Point","coordinates":[36.8492487,-1.3151129]},"properties":{"building":"yes","amenity":"place_of_worship","name":"hollyness worship centre"}},
{"type":"Feature","geometry":{"type":"Point","coordinates":[36.8300255,-1.2981865]},"properties":{"building":"industrial","amenity":null,"name":null}},
{"type":"Feature","geometry":{"type":"Point","coordinates":[36.824089,-1.290487]},"properties":{"building":"yes","amenity":null,"name":"Kenya Revenue Authority Headquarters"}},
{"type":"Feature","geometry":{"type":"Point","coordinates":[36.8233574,-1.2908459]},"properties":{"building":"yes","amenity":null,"name":"Agip House"}},
{"type":"Feature","geometry":{"type":"Point","coordinates":[36.8215033,-1.2901545]},"properties":{"building":"yes","amenity":null,"name":"Sheria House"}},
{"type":"Feature","geometry":{"type":"Point","coordinates":[36.8679383,-1.3175738]},"properties":{"building":"yes","amenity":null,"name":null}},
{"type":"Feature","geometry":{"type":"Point","coordinates":[36.8742122,-1.3096799]},"properties":{"building":"yes","amenity":null,"name":null}},
{"type":"Feature","geometry":{"type":"Point","coordinates":[36.8077513,-1.2738354]},"properties":{"building":"yes","amenity":null,"name":"Geology department, Physics dpt, Meteorology dpt"}},
{"type":"Feature","geometry":{"type":"Point","coordinates":[36.8351866,-1.3157436]},"properties":{"building":"yes","amenity":null,"name":"Capital Centre Apartments"}},
{"type":"Feature","geometry":{"type":"Point","coordinates":[36.8352296,-1.315298]},"properties":{"building":"yes","amenity":null,"name":"Zanzibari Court"}},
{"type":"Feature","geometry":{"type":"Point","coordinates":[36.8352349,-1.3150889]},"properties":{"building":"yes","amenity":null,"name":"Miseru Court"}},
{"type":"Feature","geometry":{"type":"Point","coordinates":[36.8357821,-1.3141075]},"properties":{"building":"yes","amenity":null,"name":"Capital Villa Apartments"}},
{"type":"Feature","geometry":{"type":"Point","coordinates":[36.8361898,-1.3110345]},"properties":{"building":"yes","amenity":null,"name":"Oddyssey Plaza"}},
{"type":"Feature","geometry":{"type":"Point","coordinates":[36.8357904,-1.3110353]},"properties":{"building":"yes","amenity":null,"name":"Vumira House"}},
{"type":"Feature","geometry":{"type":"Point","coordinates":[36.8340312,-1.310574]},"properties":{"building":"yes","amenity":null,"name":"Marmanet House"}},
{"type":"Feature","geometry":{"type":"Point","coordinates":[36.8339904,-1.3103319]},"properties":{"building":"yes","amenity":null,"name":"Links Arcade"}},
{"type":"Feature","geometry":{"type":"Point","coordinates":[36.8954049,-1.3117236]},"properties":{"building":"yes","amenity":null,"name":"Church Court"}},
{"type":"Feature","geometry":{"type":"Point","coordinates":[36.9057092,-1.1873314]},"properties":{"building":"yes","amenity":null,"name":"Elfabinah Estate"}},
{"type":"Feature","geometry":{"type":"Point","coordinates":[36.8488659,-1.3252123]},"properties":{"building":"yes","amenity":null,"name":"Airtel Centre"}},
{"type":"Feature","geometry":{"type":"Point","coordinates":[36.8688931,-1.2586343]},"properties":{"building":"yes","amenity":null,"name":null}},
{"type":"Feature","geometry":{"type":"Point","coordinates":[36.8406122,-1.3086794]},"properties":{"building":"yes","amenity":"recycling","name":null}},
{"type":"Feature","geometry":{"type":"Point","coordinates":[36.7793925,-1.3127965]},"properties":{"building":"yes","amenity":null,"name":"Ti-Jam cyber"}},
{"type":"Feature","geometry":{"type":"Point","coordinates":[36.7793819,-1.3122245]},"properties":{"building":"yes","amenity":null,"name":"Goldmines foundation"}},
{"type":"Feature","geometry":{"type":"Point","coordinates":[36.8746549,-1.2598092]},"properties":{"building":"office","amenity":null,"name":null}},
{"type":"Feature","geometry":{"type":"Point","coordinates":[36.7797133,-1.3150561]},"properties":{"building":"yes","amenity":"place_of_worship","name":"kingdom vision"}},
{"type":"Feature","geometry":{"type":"Point","coordinates":[36.7861025,-1.3156641]},"properties":{"building":"yes","amenity":"school","name":"Shofco Kibera School For Girls"}},
{"type":"Feature","geometry":{"type":"Point","coordinates":[36.7980712,-1.3129863]},"properties":{"building":"public","amenity":null,"name":"Soweto highrise saving scheme"}},
{"type":"Feature","geometry":{"type":"Point","coordinates":[36.7823314,-1.3074858]},"properties":{"building":"yes","amenity":null,"name":"Assistant Chief's Office"}},
{"type":"Feature","geometry":{"type":"Point","coordinates":[36.7740367,-1.3105939]},"properties":{"building":"public","amenity":null,"name":"Rhobinah House"}},
{"type":"Feature","geometry":{"type":"Point","coordinates":[36.7739598,-1.3114073]},"properties":{"building":"public","amenity":null,"name":"USAID-CARE Office"}},
{"type":"Feature","geometry":{"type":"Point","coordinates":[36.8164688,-1.2323112]},"properties":{"building":"yes","amenity":null,"name":"Block 1N"}},
{"type":"Feature","geometry":{"type":"Point","coordinates":[36.8165064,-1.2325042]},"properties":{"building":"yes","amenity":null,"name":"Block 1S"}},
{"type":"Feature","geometry":{"type":"Point","coordinates":[36.8171018,-1.2323862]},"properties":{"building":"yes","amenity":null,"name":"Block 2N"}},
{"type":"Feature","geometry":{"type":"Point","coordinates":[36.8169621,-1.2326101]},"properties":{"building":"yes","amenity":null,"name":"Block 2S"}},
{"type":"Feature","geometry":{"type":"Point","coordinates":[36.8176439,-1.2324991]},"properties":{"building":"yes","amenity":null,"name":"Block 3N"}},
{"type":"Feature","geometry":{"type":"Point","coordinates":[36.8173449,-1.2326568]},"properties":{"building":"yes","amenity":null,"name":"Block 3S"}},
{"type":"Feature","geometry":{"type":"Point","coordinates":[36.8182123,-1.2326651]},"properties":{"building":"yes","amenity":null,"name":"Block 4N"}},
{"type":"Feature","geometry":{"type":"Point","coordinates":[36.8179648,-1.232889]},"properties":{"building":"yes","amenity":null,"name":"Block 4S"}},
{"type":"Feature","geometry":{"type":"Point","coordinates":[36.8156054,-1.2326674]},"properties":{"building":"yes","amenity":null,"name":"Conference 2"}},
{"type":"Feature","geometry":{"type":"Point","coordinates":[36.8148636,-1.2324088]},"properties":{"building":"yes","amenity":null,"name":"Conference West"}},
{"type":"Feature","geometry":{"type":"Point","coordinates":[36.7849164,-1.303488]},"properties":{"building":"yes","amenity":null,"name":"Councillors office"}},
{"type":"Feature","geometry":{"type":"Point","coordinates":[36.8137075,-1.2979331]},"properties":{"building":"Britak Centre","amenity":null,"name":"British American Insurance Group"}},
{"type":"Feature","geometry":{"type":"Point","coordinates":[36.8340524,-1.3100349]},"properties":{"building":"yes","amenity":null,"name":"Jamii Sacoo"}},
{"type":"Feature","geometry":{"type":"Point","coordinates":[36.870732,-1.3112169]},"properties":{"building":"mosque","amenity":"place_of_worship","name":"masjidnuur_lungalunga"}},
{"type":"Feature","geometry":{"type":"Point","coordinates":[36.8457807,-1.3114909]},"properties":{"building":"church","amenity":"place_of_worship","name":null}},
{"type":"Feature","geometry":{"type":"Point","coordinates":[36.7812866,-1.3177951]},"properties":{"building":"yes","amenity":null,"name":"St Charles Lwanga School Polling Station"}},
{"type":"Feature","geometry":{"type":"Point","coordinates":[36.8541235,-1.2654106]},"properties":{"building":"school","amenity":null,"name":"Kiboro Primary School"}},
{"type":"Feature","geometry":{"type":"Point","coordinates":[36.8332082,-1.305615]},"properties":{"building":"office","amenity":null,"name":"Nugia Best House"}},
{"type":"Feature","geometry":{"type":"Point","coordinates":[36.8304401,-1.3107206]},"properties":{"building":"yes","amenity":null,"name":"KIMC Adminstration Building"}},
{"type":"Feature","geometry":{"type":"Point","coordinates":[36.8309444,-1.3096909]},"properties":{"building":"yes","amenity":null,"name":"KIMC Film Complex"}},
{"type":"Feature","geometry":{"type":"Point","coordinates":[36.8319153,-1.3098464]},"properties":{"building":"yes","amenity":null,"name":"MPC Function Hall"}},
{"type":"Feature","geometry":{"type":"Point","coordinates":[36.836113,-1.3117878]},"properties":{"building":"yes","amenity":null,"name":"Petrosa House"}},
{"type":"Feature","geometry":{"type":"Point","coordinates":[36.8352091,-1.3125118]},"properties":{"building":"yes","amenity":null,"name":"Mumbi Flats"}},
{"type":"Feature","geometry":{"type":"Point","coordinates":[36.83651,-1.3104953]},"properties":{"building":"yes","amenity":null,"name":"South B Shelter"}},
{"type":"Feature","geometry":{"type":"Point","coordinates":[36.8326556,-1.3170596]},"properties":{"building":"yes","amenity":null,"name":"Milano Resort"}},
{"type":"Feature","geometry":{"type":"Point","coordinates":[36.8233303,-1.3093599]},"properties":{"building":"yes","amenity":null,"name":"Shree Cutchi Leva Patel Samaj School"}},
{"type":"Feature","geometry":{"type":"Point","coordinates":[36.8243461,-1.3081409]},"properties":{"building":"yes","amenity":null,"name":"Eastend Plaza"}},
{"type":"Feature","geometry":{"type":"Point","coordinates":[36.8459326,-1.3205885]},"properties":{"building":"yes","amenity":null,"name":"Joy Park Apartment"}},
{"type":"Feature","geometry":{"type":"Point","coordinates":[36.8454605,-1.3204759]},"properties":{"building":"yes","amenity":null,"name":"Premier Gardens Apartments"}},
{"type":"Feature","geometry":{"type":"Point","coordinates":[36.8514043,-1.325442]},"properties":{"building":"yes","amenity":null,"name":"Molo Milk Diary"}},
{"type":"Feature","geometry":{"type":"Point","coordinates":[36.8253929,-1.299666]},"properties":{"building":"yes","amenity":null,"name":"Vora Building"}},
{"type":"Feature","geometry":{"type":"Point","coordinates":[36.82541,-1.3001847]},"properties":{"building":"yes","amenity":null,"name":"Occidental House"}},
{"type":"Feature","geometry":{"type":"Point","coordinates":[36.7979917,-1.2998593]},"properties":{"building":"yes","amenity":null,"name":"Maki Apartments"}},
{"type":"Feature","geometry":{"type":"Point","coordinates":[36.8697235,-1.252586]},"properties":{"building":"residential","amenity":null,"name":"mungai's building"}},
{"type":"Feature","geometry":{"type":"Point","coordinates":[36.8748624,-1.2597359]},"properties":{"building":"office","amenity":null,"name":"UNHCR FIELD OFFICE"}},
{"type":"Feature","geometry":{"type":"Point","coordinates":[36.858271,-1.2647509]},"properties":{"building":"office","amenity":"Youth Group","name":"MUOROTO INSIDER YOUTH GROUP"}},
{"type":"Feature","geometry":{"type":"Point","coordinates":[36.8618578,-1.2618643]},"properties":{"building":"school","amenity":null,"name":"MUUNGANO YA WANAVIJIJI"}},
{"type":"Feature","geometry":{"type":"Point","coordinates":[36.8593177,-1.2641686]},"properties":{"building":"office","amenity":"community_centre","name":"Shantit Youth Group"}},
{"type":"Feature","geometry":{"type":"Point","coordinates":[36.8689328,-1.2592932]},"properties":{"building":"office","amenity":"community_centre","name":"THINK TANK YOUTH GROUP"}},
{"type":"Feature","geometry":{"type":"Point","coordinates":[36.8573593,-1.2652047]},"properties":{"building":"office","amenity":"community_centre","name":"Maji Mazuri Community Resource Center"}},
{"type":"Feature","geometry":{"type":"Point","coordinates":[36.8575371,-1.2654908]},"properties":{"building":"office","amenity":"CBO","name":"MWELU FOUNDATION"}},
{"type":"Feature","geometry":{"type":"Point","coordinates":[36.8652185,-1.2605328]},"properties":{"building":"office","amenity":"arts_centre","name":"SLUM SANAA ART CENTER"}},
{"type":"Feature","geometry":{"type":"Point","coordinates":[36.8501481,-1.262266]},"properties":{"building":"office","amenity":"studio","name":"mathare community resource center"}},
{"type":"Feature","geometry":{"type":"Point","coordinates":[36.8619285,-1.2627899]},"properties":{"building":"house","amenity":null,"name":null}},
{"type":"Feature","geometry":{"type":"Point","coordinates":[36.874025,-1.2605788]},"properties":{"building":"office","amenity":null,"name":"Jonsaga Youth Group"}},
{"type":"Feature","geometry":{"type":"Point","coordinates":[36.8582172,-1.2648096]},"properties":{"building":"office","amenity":null,"name":"Muhoroto Youth Insiders"}},
{"type":"Feature","geometry":{"type":"Point","coordinates":[36.8618609,-1.2617765]},"properties":{"building":"office","amenity":null,"name":"Muungano Wa Wana Vijiji"}},
{"type":"Feature","geometry":{"type":"Point","coordinates":[36.7894078,-1.2960377]},"properties":{"building":"apartments","amenity":null,"name":"Gemina Court"}},
{"type":"Feature","geometry":{"type":"Point","coordinates":[36.8616324,-1.2633745]},"properties":{"building":"office","amenity":null,"name":"Map Mathare Office"}},
{"type":"Feature","geometry":{"type":"Point","coordinates":[36.8857097,-1.2470286]},"properties":{"building":"industrial","amenity":null,"name":null}},
{"type":"Feature","geometry":{"type":"Point","coordinates":[36.8875058,-1.2417908]},"properties":{"building":"public","amenity":null,"name":"Kenya sweets company"}},
{"type":"Feature","geometry":{"type":"Point","coordinates":[36.9053316,-1.2376118]},"properties":{"building":"Lucky summer chiefs camp","amenity":null,"name":null}},
{"type":"Feature","geometry":{"type":"Point","coordinates":[36.7479415,-1.2588957]},"properties":{"building":"public","amenity":null,"name":"KARI headquarters"}},
{"type":"Feature","geometry":{"type":"Point","coordinates":[36.8106815,-1.2876241]},"properties":{"building":"yes","amenity":null,"name":"Regent Managed Flats"}},
{"type":"Feature","geometry":{"type":"Point","coordinates":[36.7987792,-1.2610494]},"properties":{"building":"yes","amenity":null,"name":"Safaricom Care Centre"}},
{"type":"Feature","geometry":{"type":"Point","coordinates":[36.8615787,-1.3168466]},"properties":{"building":"garage","amenity":null,"name":"Pro Motor Works"}},
{"type":"Feature","geometry":{"type":"Point","coordinates":[36.7899582,-1.307981]},"properties":{"building":"public","amenity":null,"name":"Kwaho"}},
{"type":"Feature","geometry":{"type":"Point","coordinates":[36.800483,-1.3170161]},"properties":{"building":"public","amenity":null,"name":"Chief camp"}},
{"type":"Feature","geometry":{"type":"Point","coordinates":[36.7838488,-1.2896857]},"properties":{"building":"commercial","amenity":null,"name":"ACS Plaza"}},
{"type":"Feature","geometry":{"type":"Point","coordinates":[36.7882883,-1.260351]},"properties":{"building":"commercial","amenity":null,"name":"Quintica Limited"}},
{"type":"Feature","geometry":{"type":"Point","coordinates":[36.8985738,-1.1841103]},"properties":{"building":"school","amenity":null,"name":"Mahiga Primary"}},
{"type":"Feature","geometry":{"type":"Point","coordinates":[36.7752276,-1.3154273]},"properties":{"building":"school","amenity":"school","name":"St Catherine Children and Educational Centre"}},
{"type":"Feature","geometry":{"type":"Point","coordinates":[36.7818908,-1.316194]},"properties":{"building":"yes","amenity":"school","name":"Seed School Kibera"}},
{"type":"Feature","geometry":{"type":"Point","coordinates":[36.7825824,-1.3153746]},"properties":{"building":"yes","amenity":"school","name":"Kibera Hamlets"}},
{"type":"Feature","geometry":{"type":"Point","coordinates":[36.8940772,-1.2848255]},"properties":{"building":"school","amenity":null,"name":"Cathsam Primary school"}},
{"type":"Feature","geometry":{"type":"Point","coordinates":[36.8938412,-1.284914]},"properties":{"building":"school","amenity":null,"name":"Umoja P.A.G Primary school"}},
{"type":"Feature","geometry":{"type":"Point","coordinates":[36.8935006,-1.2842624]},"properties":{"building":"school","amenity":null,"name":"Unity Primary School"}},
{"type":"Feature","geometry":{"type":"Point","coordinates":[36.8803931,-1.2806622]},"properties":{"building":"school","amenity":null,"name":"Shepherds Junior School"}},
{"type":"Feature","geometry":{"type":"Point","coordinates":[36.8776755,-1.2796156]},"properties":{"building":"commercial","amenity":null,"name":"Buruburu Complex Building"}},
{"type":"Feature","geometry":{"type":"Point","coordinates":[36.7964371,-1.3167547]},"properties":{"building":"yes","amenity":null,"name":null}},
{"type":"Feature","geometry":{"type":"Point","coordinates":[36.9144087,-1.2698172]},"properties":{"building":"church","amenity":null,"name":"Catholic Church"}},
{"type":"Feature","geometry":{"type":"Point","coordinates":[36.8899185,-1.3339008]},"properties":{"building":"warehouse","amenity":null,"name":"Alpha Centre"}},
{"type":"Feature","geometry":{"type":"Point","coordinates":[36.8256597,-1.3103404]},"properties":{"building":"residential","amenity":null,"name":"Amani Court South C"}},
{"type":"Feature","geometry":{"type":"Point","coordinates":[36.830045,-1.3116224]},"properties":{"building":"yes","amenity":null,"name":"Twinster Towers"}},
{"type":"Feature","geometry":{"type":"Point","coordinates":[36.8892873,-1.250052]},"properties":{"building":"yes","amenity":null,"name":"bio centre"}},
{"type":"Feature","geometry":{"type":"Point","coordinates":[36.8975559,-1.2448961]},"properties":{"building":"yes","amenity":null,"name":"boma rescue centre"}},
{"type":"Feature","geometry":{"type":"Point","coordinates":[36.8939579,-1.2462712]},"properties":{"building":"yes","amenity":null,"name":"ngunyumu centre"}},
{"type":"Feature","geometry":{"type":"Point","coordinates":[36.8840604,-1.2595947]},"properties":{"building":"kasarani youth resource centre","amenity":null,"name":null}},
{"type":"Feature","geometry":{"type":"Point","coordinates":[36.8971167,-1.2445353]},"properties":{"building":"yes","amenity":null,"name":"oxsic children's home"}},
{"type":"Feature","geometry":{"type":"Point","coordinates":[36.8304739,-1.3263619]},"properties":{"building":"residential","amenity":null,"name":"Green 2"}},
{"type":"Feature","geometry":{"type":"Point","coordinates":[36.8339405,-1.3254371]},"properties":{"building":"yes","amenity":null,"name":"Landmark Holding"}},
{"type":"Feature","geometry":{"type":"Point","coordinates":[36.7740022,-1.3139113]},"properties":{"building":"house","amenity":null,"name":null}},
{"type":"Feature","geometry":{"type":"Point","coordinates":[36.7735087,-1.3138041]},"properties":{"building":"house","amenity":null,"name":null}},
{"type":"Feature","geometry":{"type":"Point","coordinates":[36.840467,-1.309673]},"properties":{"building":"church","amenity":"place_of_worship","name":null}},
{"type":"Feature","geometry":{"type":"Point","coordinates":[36.8109175,-1.3022174]},"properties":{"building":"yes","amenity":null,"name":"African Reinsurance Corporation"}},
{"type":"Feature","geometry":{"type":"Point","coordinates":[36.8112587,-1.3035781]},"properties":{"building":"yes","amenity":null,"name":"KASNEB"}},
{"type":"Feature","geometry":{"type":"Point","coordinates":[36.7774627,-1.2968634]},"properties":{"building":"church","amenity":"place_of_worship","name":"Pneuma ministries international"}},
{"type":"Feature","geometry":{"type":"Point","coordinates":[36.7808696,-1.3078718]},"properties":{"building":"public","amenity":null,"name":"Map Kibera Trust"}},
{"type":"Feature","geometry":{"type":"Point","coordinates":[36.9132224,-1.2680126]},"properties":{"building":"public","amenity":null,"name":"Family Beach"}},
{"type":"Feature","geometry":{"type":"Point","coordinates":[36.739354,-1.3386895]},"properties":{"building":"mosque","amenity":"place_of_worship","name":"Al-Anwaar Mosque"}},
{"type":"Feature","geometry":{"type":"Point","coordinates":[36.8243682,-1.3235229]},"properties":{"building":"mosque","amenity":"place_of_worship","name":"Memon Mosque"}},
{"type":"Feature","geometry":{"type":"Point","coordinates":[36.7866069,-1.3148039]},"properties":{"building":"public","amenity":null,"name":"Girl Power Clubs-Kibera office"}},
{"type":"Feature","geometry":{"type":"Point","coordinates":[36.7178853,-1.3203037]},"properties":{"building":"yes","amenity":null,"name":"Karen Triangle"}},
{"type":"Feature","geometry":{"type":"Point","coordinates":[36.8278656,-1.2879304]},"properties":{"building":"yes","amenity":null,"name":"Afya Centre"}},
{"type":"Feature","geometry":{"type":"Point","coordinates":[36.809613,-1.270019]},"properties":{"building":"yes","amenity":null,"name":"Leomar court"}},
{"type":"Feature","geometry":{"type":"Point","coordinates":[36.7595835,-1.3002713]},"properties":{"building":"yes","amenity":null,"name":"Kenya Meteorological Department"}},
{"type":"Feature","geometry":{"type":"Point","coordinates":[36.7894393,-1.3136784]},"properties":{"building":"office","amenity":"public_building","name":"Care for Kenya"}},
{"type":"Feature","geometry":{"type":"Point","coordinates":[36.7857399,-1.2938859]},"properties":{"building":"hotel","amenity":null,"name":"Tropical Towers"}},
{"type":"Feature","geometry":{"type":"Point","coordinates":[36.7903011,-1.2880157]},"properties":{"building":"apartments","amenity":null,"name":"Rivera Towers"}},
{"type":"Feature","geometry":{"type":"Point","coordinates":[36.7878147,-1.2904854]},"properties":{"building":"apartments","amenity":null,"name":"Prime Executive Apartments"}},
{"type":"Feature","geometry":{"type":"Point","coordinates":[36.7068236,-1.3348325]},"properties":{"building":"yes","amenity":null,"name":"Marula Manor"}},
{"type":"Feature","geometry":{"type":"Point","coordinates":[36.7830585,-1.3175577]},"properties":{"building":"yes","amenity":"school","name":"KidStar Academy"}},
{"type":"Feature","geometry":{"type":"Point","coordinates":[36.8116897,-1.2724582]},"properties":{"building":"yes","amenity":null,"name":"TransUnion Credit Reference Bureau"}},
{"type":"Feature","geometry":{"type":"Point","coordinates":[36.7635684,-1.2973032]},"properties":{"building":"apartments","amenity":null,"name":"Junction Gardens"}},
{"type":"Feature","geometry":{"type":"Point","coordinates":[36.7925716,-1.3108781]},"properties":{"building":"yes","amenity":null,"name":null}},
{"type":"Feature","geometry":{"type":"Point","coordinates":[36.7931899,-1.3098637]},"properties":{"building":"yes","amenity":null,"name":null}},
{"type":"Feature","geometry":{"type":"Point","coordinates":[36.7852048,-1.2588682]},"properties":{"building":"yes","amenity":null,"name":"Michael Joseph Centre"}},
{"type":"Feature","geometry":{"type":"Point","coordinates":[36.7630503,-1.2651914]},"properties":{"building":"yes","amenity":null,"name":null}},
{"type":"Feature","geometry":{"type":"Point","coordinates":[36.7609937,-1.2816507]},"properties":{"building":"yes","amenity":null,"name":"The Spot"}},
{"type":"Feature","geometry":{"type":"Point","coordinates":[36.7917074,-1.2691191]},"properties":{"building":"yes","amenity":null,"name":"Segen Plaza"}},
{"type":"Feature","geometry":{"type":"Point","coordinates":[36.7967494,-1.2690639]},"properties":{"building":"yes","amenity":null,"name":"9-Riverside"}},
{"type":"Feature","geometry":{"type":"Point","coordinates":[36.8111318,-1.2569563]},"properties":{"building":"yes","amenity":null,"name":"Parklands Tower"}},
{"type":"Feature","geometry":{"type":"Point","coordinates":[36.8067974,-1.2627824]},"properties":{"building":"yes","amenity":null,"name":"One Westpark"}},
{"type":"Feature","geometry":{"type":"Point","coordinates":[36.7983704,-1.259629]},"properties":{"building":"yes","amenity":null,"name":"Angel Court Apartments"}},
{"type":"Feature","geometry":{"type":"Point","coordinates":[36.8211179,-1.2601887]},"properties":{"building":"yes","amenity":null,"name":"Hamaki Orchards"}},
{"type":"Feature","geometry":{"type":"Point","coordinates":[36.8274732,-1.2577927]},"properties":{"building":"yes","amenity":null,"name":"Total Kenya Headquarters"}},
{"type":"Feature","geometry":{"type":"Point","coordinates":[36.8046756,-1.2614902]},"properties":{"building":"yes","amenity":null,"name":"Skynest Apartments Westlands"}},
{"type":"Feature","geometry":{"type":"Point","coordinates":[36.8229563,-1.302477]},"properties":{"building":"yes","amenity":null,"name":"La Colline Gardens"}},
{"type":"Feature","geometry":{"type":"Point","coordinates":[36.8117668,-1.3002142]},"properties":{"building":"yes","amenity":null,"name":"Delta center"}},
{"type":"Feature","geometry":{"type":"Point","coordinates":[36.8159957,-1.3015043]},"properties":{"building":"yes","amenity":null,"name":"Engen Head Office"}},
{"type":"Feature","geometry":{"type":"Point","coordinates":[36.8116972,-1.3010728]},"properties":{"building":"yes","amenity":null,"name":"Delta Center"}},
{"type":"Feature","geometry":{"type":"Point","coordinates":[36.786918,-1.2962037]},"properties":{"building":"yes","amenity":null,"name":"Sohail Court"}},
{"type":"Feature","geometry":{"type":"Point","coordinates":[36.7869972,-1.296821]},"properties":{"building":"yes","amenity":null,"name":"St. Martin’s Court"}},
{"type":"Feature","geometry":{"type":"Point","coordinates":[36.8837204,-1.3043619]},"properties":{"building":"yes","amenity":null,"name":"kenpoly"}},
{"type":"Feature","geometry":{"type":"Point","coordinates":[36.7797121,-1.2991467]},"properties":{"building":"yes","amenity":null,"name":null}},
{"type":"Feature","geometry":{"type":"Point","coordinates":[36.9003973,-1.2825259]},"properties":{"building":"yes","amenity":null,"name":null}},
{"type":"Feature","geometry":{"type":"Point","coordinates":[36.7794674,-1.3074452]},"properties":{"building":"service","amenity":null,"name":"Toi Market Fire Damage extent"}},
{"type":"Feature","geometry":{"type":"Point","coordinates":[36.7823872,-1.287532]},"properties":{"building":"residential","amenity":null,"name":"Pharoah’s Court"}},
{"type":"Feature","geometry":{"type":"Point","coordinates":[36.7929788,-1.2946631]},"properties":{"building":"yes","amenity":null,"name":"Bristow Court"}},
{"type":"Feature","geometry":{"type":"Point","coordinates":[36.7833679,-1.2889978]},"properties":{"building":"Senteu Plaza","amenity":"coworking_space","name":"iHub"}},
{"type":"Feature","geometry":{"type":"Point","coordinates":[36.8998401,-1.3075841]},"properties":{"building":"apartments","amenity":null,"name":"Airport View Apartments"}},
{"type":"Feature","geometry":{"type":"Point","coordinates":[36.7922896,-1.2499894]},"properties":{"building":"construction","amenity":null,"name":null}},
{"type":"Feature","geometry":{"type":"Point","coordinates":[36.9032649,-1.3082957]},"properties":{"building":"detached","amenity":"marketplace","name":"NYAYO Gate B Grocery Stalls"}},
{"type":"Feature","geometry":{"type":"Point","coordinates":[36.8180287,-1.3118007]},"properties":{"building":"yes","amenity":null,"name":null}},
{"type":"Feature","geometry":{"type":"Point","coordinates":[36.7456267,-1.2884817]},"properties":{"building":"house","amenity":null,"name":null}},
{"type":"Feature","geometry":{"type":"Point","coordinates":[36.7778199,-1.3147135]},"properties":{"building":"yes","amenity":null,"name":"KAG Olympic Polling Station"}},
{"type":"Feature","geometry":{"type":"Point","coordinates":[36.7952832,-1.3109857]},"properties":{"building":"yes","amenity":null,"name":"YMCA School Polling Station"}},
{"type":"Feature","geometry":{"type":"Point","coordinates":[36.8432736,-1.2666319]},"properties":{"building":"school","amenity":"school","name":"Judah Education Centre"}},
{"type":"Feature","geometry":{"type":"Point","coordinates":[36.8466199,-1.2647968]},"properties":{"building":"yes","amenity":null,"name":"St. Teresa's Secondary Polling Staion"}},
{"type":"Feature","geometry":{"type":"Point","coordinates":[36.7559624,-1.3005491]},"properties":{"building":"yes","amenity":"bank","name":"Equity Bank"}},
{"type":"Feature","geometry":{"type":"Point","coordinates":[36.7769706,-1.3081152]},"properties":{"building":"yes","amenity":null,"name":"Ayany Polling Station"}},
{"type":"Feature","geometry":{"type":"Point","coordinates":[36.8092802,-1.2617985]},"properties":{"building":"apartments","amenity":null,"name":"Parklands Court"}},
{"type":"Feature","geometry":{"type":"Point","coordinates":[36.7988174,-1.3104707]},"properties":{"building":"yes","amenity":null,"name":"Shadrack Kimalel Primary School Polling Staion"}},
{"type":"Feature","geometry":{"type":"Point","coordinates":[36.772871,-1.3078221]},"properties":{"building":"yes","amenity":null,"name":"Kibera Ayany Polling Station"}},
{"type":"Feature","geometry":{"type":"Point","coordinates":[36.7806139,-1.3132595]},"properties":{"building":"yes","amenity":null,"name":"Olympic Primary School Polling Station"}},
{"type":"Feature","geometry":{"type":"Point","coordinates":[36.7906111,-1.3120692]},"properties":{"building":"yes","amenity":null,"name":"Mashimoni Squatters Primary School Polling Station"}},
{"type":"Feature","geometry":{"type":"Point","coordinates":[36.7834262,-1.3071128]},"properties":{"building":"yes","amenity":null,"name":"Holy Trinity Church Polling Station"}},
{"type":"Feature","geometry":{"type":"Point","coordinates":[36.7973649,-1.3173535]},"properties":{"building":"yes","amenity":null,"name":"PCEA Church Silanga High School Polling Station"}},
{"type":"Feature","geometry":{"type":"Point","coordinates":[36.7840176,-1.3098741]},"properties":{"building":"yes","amenity":null,"name":"Kibera Primary School Polling Station"}},
{"type":"Feature","geometry":{"type":"Point","coordinates":[36.7803778,-1.3057834]},"properties":{"building":"yes","amenity":null,"name":"Toi Primary School Polling Station"}},
{"type":"Feature","geometry":{"type":"Point","coordinates":[36.8045466,-1.3155227]},"properties":{"building":"yes","amenity":null,"name":"St.Judes Catholic Church Polling Station"}},
{"type":"Feature","geometry":{"type":"Point","coordinates":[36.8844201,-1.2828746]},"properties":{"building":"yes","amenity":null,"name":null}},
{"type":"Feature","geometry":{"type":"Point","coordinates":[36.8876635,-1.2866608]},"properties":{"building":"yes","amenity":null,"name":null}},
{"type":"Feature","geometry":{"type":"Point","coordinates":[36.888095,-1.2893812]},"properties":{"building":"yes","amenity":null,"name":null}},
{"type":"Feature","geometry":{"type":"Point","coordinates":[36.8948394,-1.2824276]},"properties":{"building":"yes","amenity":null,"name":null}},
{"type":"Feature","geometry":{"type":"Point","coordinates":[36.8947584,-1.2824745]},"properties":{"building":"yes","amenity":null,"name":null}},
{"type":"Feature","geometry":{"type":"Point","coordinates":[36.8869602,-1.3247353]},"properties":{"building":"yes","amenity":null,"name":null}},
{"type":"Feature","geometry":{"type":"Point","coordinates":[36.8876928,-1.3243498]},"properties":{"building":"yes","amenity":null,"name":null}},
{"type":"Feature","geometry":{"type":"Point","coordinates":[36.8866772,-1.3274547]},"properties":{"building":"yes","amenity":null,"name":null}},
{"type":"Feature","geometry":{"type":"Point","coordinates":[36.8851373,-1.3177967]},"properties":{"building":"yes","amenity":null,"name":null}},
{"type":"Feature","geometry":{"type":"Point","coordinates":[36.8833271,-1.2930161]},"properties":{"building":"yes","amenity":null,"name":null}},
{"type":"Feature","geometry":{"type":"Point","coordinates":[36.8833277,-1.2929524]},"properties":{"building":"yes","amenity":null,"name":null}},
{"type":"Feature","geometry":{"type":"Point","coordinates":[36.8831262,-1.2927179]},"properties":{"building":"yes","amenity":null,"name":null}},
{"type":"Feature","geometry":{"type":"Point","coordinates":[36.883577,-1.293061]},"properties":{"building":"yes","amenity":null,"name":null}},
{"type":"Feature","geometry":{"type":"Point","coordinates":[36.8826179,-1.287993]},"properties":{"building":"yes","amenity":null,"name":null}},
{"type":"Feature","geometry":{"type":"Point","coordinates":[36.8898829,-1.2666315]},"properties":{"building":"yes","amenity":null,"name":null}},
{"type":"Feature","geometry":{"type":"Point","coordinates":[36.9023047,-1.2609857]},"properties":{"building":"yes","amenity":null,"name":null}},
{"type":"Feature","geometry":{"type":"Point","coordinates":[36.8893936,-1.2621228]},"properties":{"building":"yes","amenity":null,"name":null}},
{"type":"Feature","geometry":{"type":"Point","coordinates":[36.8972209,-1.2644883]},"properties":{"building":"yes","amenity":null,"name":null}},
{"type":"Feature","geometry":{"type":"Point","coordinates":[36.8945719,-1.267401]},"properties":{"building":"yes","amenity":null,"name":null}},
{"type":"Feature","geometry":{"type":"Point","coordinates":[36.8943456,-1.2674899]},"properties":{"building":"yes","amenity":null,"name":null}},
{"type":"Feature","geometry":{"type":"Point","coordinates":[36.8947311,-1.2680098]},"properties":{"building":"yes","amenity":null,"name":null}},
{"type":"Feature","geometry":{"type":"Point","coordinates":[36.8919299,-1.268182]},"properties":{"building":"yes","amenity":null,"name":null}},
{"type":"Feature","geometry":{"type":"Point","coordinates":[36.9201672,-1.2441706]},"properties":{"building":"yes","amenity":null,"name":null}},
{"type":"Feature","geometry":{"type":"Point","coordinates":[36.9162252,-1.2247867]},"properties":{"building":"cowshed","amenity":null,"name":null}},
{"type":"Feature","geometry":{"type":"Point","coordinates":[36.9254338,-1.2670438]},"properties":{"building":"foundation","amenity":null,"name":null}},
{"type":"Feature","geometry":{"type":"Point","coordinates":[36.8972913,-1.2156019]},"properties":{"building":"yes","amenity":null,"name":null}},
{"type":"Feature","geometry":{"type":"Point","coordinates":[36.907703,-1.2193957]},"properties":{"building":"yes","amenity":null,"name":null}},
{"type":"Feature","geometry":{"type":"Point","coordinates":[36.9929259,-1.2694584]},"properties":{"building":"yes","amenity":null,"name":null}},
{"type":"Feature","geometry":{"type":"Point","coordinates":[36.9192455,-1.2539637]},"properties":{"building":"yes","amenity":null,"name":null}},
{"type":"Feature","geometry":{"type":"Point","coordinates":[36.9129058,-1.2381102]},"properties":{"building":"construction","amenity":null,"name":null}},
{"type":"Feature","geometry":{"type":"Point","coordinates":[36.8824795,-1.2161644]},"properties":{"building":"construction","amenity":null,"name":null}},
{"type":"Feature","geometry":{"type":"Point","coordinates":[36.8582677,-1.2492711]},"properties":{"building":"yes","amenity":null,"name":null}},
{"type":"Feature","geometry":{"type":"Point","coordinates":[36.7994299,-1.3149961]},"properties":{"building":"yes","amenity":null,"name":null}},
{"type":"Feature","geometry":{"type":"Point","coordinates":[36.7998697,-1.3132733]},"properties":{"building":"yes","amenity":null,"name":null}},
{"type":"Feature","geometry":{"type":"Point","coordinates":[36.7955487,-1.3118199]},"properties":{"building":"yes","amenity":null,"name":null}},
{"type":"Feature","geometry":{"type":"Point","coordinates":[36.7941781,-1.3102539]},"properties":{"building":"yes","amenity":null,"name":null}},
{"type":"Feature","geometry":{"type":"Point","coordinates":[36.7945616,-1.3103853]},"properties":{"building":"yes","amenity":null,"name":null}},
{"type":"Feature","geometry":{"type":"Point","coordinates":[36.8054293,-1.303982]},"properties":{"building":"yes","amenity":null,"name":null}},
{"type":"Feature","geometry":{"type":"Point","coordinates":[36.7968018,-1.3178195]},"properties":{"building":"church","amenity":"place_of_worship","name":null}},
{"type":"Feature","geometry":{"type":"Point","coordinates":[36.7955864,-1.313911]},"properties":{"building":"yes","amenity":null,"name":null}},
{"type":"Feature","geometry":{"type":"Point","coordinates":[36.7212915,-1.2673697]},"properties":{"building":"roof","amenity":null,"name":null}},
{"type":"Feature","geometry":{"type":"Point","coordinates":[36.7223568,-1.2705708]},"properties":{"building":"roof","amenity":null,"name":null}},
{"type":"Feature","geometry":{"type":"Point","coordinates":[36.9634976,-1.2812978]},"properties":{"building":"yes","amenity":null,"name":"Mustard seed plaza"}},
{"type":"Feature","geometry":{"type":"Point","coordinates":[36.7518503,-1.2687354]},"properties":{"building":"church","amenity":"place_of_worship","name":"Christ The King Catholic Church Kangemi"}},
{"type":"Feature","geometry":{"type":"Point","coordinates":[36.7152468,-1.2836491]},"properties":{"building":"yes","amenity":null,"name":null}},
{"type":"Feature","geometry":{"type":"Point","coordinates":[36.7573342,-1.2913481]},"properties":{"building":"building","amenity":null,"name":null}},
{"type":"Feature","geometry":{"type":"Point","coordinates":[36.844885,-1.2815163]},"properties":{"building":"yes","amenity":null,"name":null}},
{"type":"Feature","geometry":{"type":"Point","coordinates":[36.9724844,-1.2579889]},"properties":{"building":"yes","amenity":null,"name":null}},
{"type":"Feature","geometry":{"type":"Point","coordinates":[36.8052634,-1.2042974]},"properties":{"building":"yes","amenity":null,"name":null}},
{"type":"Feature","geometry":{"type":"Point","coordinates":[36.8887078,-1.252849]},"properties":{"building":"garage","amenity":null,"name":"Kwa marlon"}},
{"type":"Feature","geometry":{"type":"Point","coordinates":[36.8732602,-1.3124752]},"properties":{"building":"greenhouse","amenity":null,"name":"rafiki cbo lungalunga."}},
{"type":"Feature","geometry":{"type":"Point","coordinates":[36.8898129,-1.2542106]},"properties":{"building":"greenhouse","amenity":null,"name":"Kombgreen solutions"}},
{"type":"Feature","geometry":{"type":"Point","coordinates":[36.8900558,-1.2509136]},"properties":{"building":"muslim","amenity":"place_of_worship","name":"Korogocho mosque"}},
{"type":"Feature","geometry":{"type":"Point","coordinates":[36.8871658,-1.2505006]},"properties":{"building":"muslim","amenity":"place_of_worship","name":"Al-falah"}},
{"type":"Feature","geometry":{"type":"Point","coordinates":[36.8905003,-1.2489705]},"properties":{"building":"mosque","amenity":"place_of_worship","name":"Masjid Aqsa"}},
{"type":"Feature","geometry":{"type":"Point","coordinates":[36.9337163,-1.1807138]},"properties":{"building":"school","amenity":null,"name":"GIS Lab"}},
{"type":"Feature","geometry":{"type":"Point","coordinates":[36.9335065,-1.180494]},"properties":{"building":"yes","amenity":null,"name":null}},
{"type":"Feature","geometry":{"type":"Point","coordinates":[36.9331789,-1.1809696]},"properties":{"building":"monument","amenity":null,"name":"Monument"}},
{"type":"Feature","geometry":{"type":"Point","coordinates":[36.9290601,-1.1792052]},"properties":{"building":"yes","amenity":null,"name":"amphitheater"}},
{"type":"Feature","geometry":{"type":"Point","coordinates":[36.7893777,-1.2688224]},"properties":{"building":"commercial","amenity":null,"name":"AfricaCity Hub"}},
{"type":"Feature","geometry":{"type":"Point","coordinates":[36.8135309,-1.2310117]},"properties":{"building":"yes","amenity":null,"name":"United Nations Commissary"}},
{"type":"Feature","geometry":{"type":"Point","coordinates":[36.7631422,-1.2671056]},"properties":{"building":"church","amenity":"place_of_worship","name":"Kilimani Springs SDA Church"}}
]}